#aV2007  4 18  0  0   .00000000      96 DD+AD WGS84 FIT  NGA
## 1423 259200.00000000   900.00000000 54208  .0000000000000
+   30     1  2  3  4  5  6  7  8  9 10 11 12 13 14 16 17 18
+         19 20 21 22 23 24 25 26 27 28 29 30 31  0  0  0  0
+          0  0  0  0  0  0  0  0  0  0  0  0  0  0  0  0  0
+          0  0  0  0  0  0  0  0  0  0  0  0  0  0  0  0  0
+          0  0  0  0  0  0  0  0  0  0  0  0  0  0  0  0  0
++         0  0  0  0  0  0  0  0  0  0  0  0  0  0  0  0  0
++         0  0  0  0  0  0  0  0  0  0  0  0  0  0  0  0  0
++         0  0  0  0  0  0  0  0  0  0  0  0  0  0  0  0  0
++         0  0  0  0  0  0  0  0  0  0  0  0  0  0  0  0  0
++         0  0  0  0  0  0  0  0  0  0  0  0  0  0  0  0  0
%c cc cc ccc ccc cccc cccc cccc cccc ccccc ccccc ccccc ccccc
%c cc cc ccc ccc cccc cccc cccc cccc ccccc ccccc ccccc ccccc
%f  0.0000000  0.000000000  0.00000000000  0.000000000000000
%f  0.0000000  0.000000000  0.00000000000  0.000000000000000
%i    0    0    0    0      0      0      0      0         0
%i    0    0    0    0      0      0      0      0         0
/*      NGA, ST. LOUIS,MO.                                  
/*   EPHEMERIS COMPUTED FROM  3 DAYS OF DATA                
/* CCCCCCCCCCCCCCCCCCCCCCCCCCCCCCCCCCCCCCCCCCCCCCCCCCCCCCCCC
/* CCCCCCCCCCCCCCCCCCCCCCCCCCCCCCCCCCCCCCCCCCCCCCCCCCCCCCCCC
*  2007  4 18 20 45   .00000000                                                 
P  1 -22148.130813 -14680.349527   -917.303144    121.389707                    
V  1   -113.509568  -2302.587547  32328.006559       .026475                    
P  2  13848.457347  11670.942610 -19736.402687     99.922091                    
V  2  -1929.826031  24499.584363  13010.101487       .029698                    
P  3 -24632.506374  -9984.472404   2735.488045     44.651489                    
V  3  -1706.778349  -4874.792767 -30502.265926       .056468                    
P  4   7426.938853  22417.174647 -11859.683141     10.466491                    
V  4  -3738.409074  14948.860621  26419.009178       .004568                    
P  5  21464.486969 -15423.192145  -1801.288974     30.123650                    
V  5   3664.797891   1935.685694  31255.782811      -.082982                    
P  6   9376.932819 -12683.761642 -21184.954506    147.178933                    
V  6  23649.095076  13922.403211   2065.837199       .173756                    
P  7   4417.228206 -15204.421480 -20975.749860    339.750562                    
V  7  24450.129061  12692.306388  -4058.789902      -.155746                    
P  8   -524.426760  26195.421177   2403.541500   -104.176157                    
V  8  -2907.514017   2998.205704 -32219.256438      -.013853                    
P  9  13934.107998  -8870.951467  20159.659860     66.579858                    
V  9   1191.439519  26976.305308  10960.116327       .016046                    
P 10  20988.546717   2142.898248 -16442.850398    100.570132                    
V 10 -17706.738797  10468.963382 -21070.649753       .006930                    
P 11 -14084.380589  11390.281276  19241.819757     13.677430                    
V 11  -5156.994085 -24567.293783  10999.070853       .010544                    
P 12  23744.769589 -11795.122044   1069.351539    -44.030749                    
V 12    259.301942   3098.770828  31756.943001      -.001854                    
P 13  -5961.303613  13413.578526 -22237.820104    164.334442                    
V 13 -23185.659830 -15514.892289  -3112.861815       .036408                    
P 14 -12889.533984 -19030.782821  13453.261213     16.396355                    
V 14  14918.099790   8017.536879  25721.002305       .016268                    
P 16 -16516.902250  -6853.962799 -19596.922050    140.855334                    
V 16  21746.350538 -12431.576270 -13776.514805       .031665                    
P 17  10909.378818  19223.930851  14827.809486     71.227551                    
V 17 -16908.168447  -8376.485547  23189.320683      -.013442                    
P 18  10327.964830 -17964.185440  16556.177009   -251.485883                    
V 18  19805.673479  -7091.749290 -20540.397282       .006178                    
P 19 -22618.454370  -4801.382228  13265.567559     26.033961                    
V 19 -12219.189561 -11517.055863 -25084.821150       .036240                    
P 20 -23257.722520  12777.712660   -124.892079    -23.798529                    
V 20  -1520.888165  -2715.946864  31603.655557      -.003484                    
P 21   5516.592467 -25117.033810  -5181.169202     75.582052                    
V 21   3402.850531   7094.341113 -30708.837403       .006023                    
P 22  -1594.626520 -16020.236751  21272.675188    177.614668                    
V 22  24439.575620 -10768.021130  -6348.205183       .017881                    
P 23 -16319.472176   6069.209149 -20196.350237    160.868410                    
V 23 -21024.816838 -14235.323914  12569.900867       .022932                    
P 24  12458.249720 -17680.721204 -15401.888306     93.824769                    
V 24    207.823901  19918.500446 -22108.654786       .029176                    
P 25 -14052.938989   8167.848413 -20668.276898    222.495292                    
V 25  -2359.511021 -26989.319459  -8732.033582      -.284268                    
P 26  23305.219783   7382.418771  10637.620915   -148.359839                    
V 26  10825.121043   8852.344745 -28138.746985      -.200853                    
P 27  -3779.612790  25208.390241  -6351.953818    105.794271                    
V 27  -3163.160171  -8883.836808 -30567.561543       .021371                    
P 28  -2209.430192  17086.827071  20454.337378      2.941234                    
V 28 -23147.393447  10338.156718 -11664.672246      -.007246                    
P 29  24033.252642   9380.793953   7291.821085      1.822508                    
V 29   6724.992556   5951.897854 -30358.791240       .004984                    
P 30  17361.060694 -17854.199103  -9369.964943     31.406680                    
V 30  11486.025344  -3178.213975  28372.140557       .011017                    
P 31  -8191.104758 -21670.122608 -12728.110401     19.675682                    
V 31   2886.742149 -16426.263559  25773.238436       .005071                    
EOF
